ONEWEB-0380             
1 49306U 21090AD  25340.45883820  .00000071  00000+0  14425-3 0  9992
2 49306  87.9199 343.3239 0001578  93.9809 266.1504 13.19724085201000
ONEWEB-0381             
1 49307U 21090AE  25340.20576806  .00000044  00000+0  77241-4 0  9995
2 49307  87.9196 312.9244 0001676  91.0557 269.0769 13.20769652204351
ONEWEB-0382             
1 49308U 21090AF  25340.34465142  .00000127  00000+0  28009-3 0  9990
2 49308  87.9200 312.8925 0001844  94.2679 265.8665 13.20773985204364
ONEWEB-0383             
1 49309U 21090AG  25340.37739933 -.00000125  00000+0 -37062-3 0  9995
2 49309  87.8989 328.1038 0001898  91.7116 268.4231 13.14503225202266
ONEWEB-0384             
1 49310U 21090AH  25340.18669633  .00000022  00000+0  22556-4 0  9992
2 49310  87.9208 312.9593 0002014  99.5841 260.5520 13.20798206204350
ONEWEB-0385             
1 49311U 21090AJ  25340.63978503  .00000105  00000+0  22623-3 0  9998
2 49311  87.9187 312.8390 0001831  89.3602 270.7741 13.20769435204382
ONEWEB-0386             
1 49312U 21090AK  25340.35412424  .00000135  00000+0  29958-3 0  9994
2 49312  87.9200 312.8792 0001920  90.9155 269.2198 13.20769721204360
ONEWEB-0387             
1 49313U 21090AL  25340.33835574 -.00001031  00000+0 -25672-2 0  9994
2 49313  87.9189 312.9287 0001577  90.0231 270.1083 13.20778977204368
ONEWEB-0388             
1 49314U 21090AM  25340.45409276  .00000078  00000+0  16341-3 0  9996
2 49314  87.9188 343.3260 0001806  94.6207 265.5132 13.19724034200996
ONEWEB-0389             
1 50469U 21132A   25340.62458552  .00000111  00000+0  25174-3 0  9998
2 50469  87.9123  44.1618 0001660 113.9335 246.1971 13.17647632192729
ONEWEB-0390             
1 50470U 21132B   25340.62627849  .00000096  00000+0  21513-3 0  9992
2 50470  87.9116  44.1640 0001513  95.2465 264.8839 13.17648456192726
ONEWEB-0391             
1 50471U 21132C   25340.62796192  .00000061  00000+0  12449-3 0  9991
2 50471  87.9115  44.1734 0001257 129.9921 230.1321 13.17648485192721
ONEWEB-0392             
1 50472U 21132D   25340.58240183  .00000084  00000+0  18206-3 0  9993
2 50472  87.9127  44.1340 0001563 114.0207 246.1089 13.17648881192751
ONEWEB-0393             
1 50473U 21132E   25340.63147035 -.00000006  00000+0 -48802-4 0  9994
2 50473  87.9125  44.1464 0001622 107.4922 252.6387 13.17647345192750
ONEWEB-0394             
1 50474U 21132F   25340.59916189  .00000125  00000+0  28371-3 0  9992
2 50474  87.9187  13.6891 0001762 100.6614 259.4717 13.18685674196217
ONEWEB-0395             
1 50475U 21132G   25340.59399059  .00000656  00000+0  18139-2 0  9993
2 50475  87.8859  59.4288 0001397 103.0165 257.1119 13.11419591190472
