[{"OBJECT_NAME":"ONEWEB-0380","OBJECT_ID":"2021-090AD","EPOCH":"2025-12-06T11:00:43.620480","MEAN_MOTION":13.19724085,"ECCENTRICITY":0.00015789,"INCLINATION":87.9199,"RA_OF_ASC_NODE":343.3239,"ARG_OF_PERICENTER":93.9809,"MEAN_ANOMALY":266.1504,"EPHEMERIS_TYPE":0,"CLASSIFICATION_TYPE":"U","NORAD_CAT_ID":49306,"ELEMENT_SET_NO":999,"REV_AT_EPOCH":20100,"BSTAR":0.00014424713,"MEAN_MOTION_DOT":7.1e-7,"MEAN_MOTION_DDOT":0},{"OBJECT_NAME":"ONEWEB-0381","OBJECT_ID":"2021-090AE","EPOCH":"2025-12-06T04:56:18.360384","MEAN_MOTION":13.20769652,"ECCENTRICITY":0.00016767,"INCLINATION":87.9196,"RA_OF_ASC_NODE":312.9244,"ARG_OF_PERICENTER":91.0557,"MEAN_ANOMALY":269.0769,"EPHEMERIS_TYPE":0,"CLASSIFICATION_TYPE":"U","NORAD_CAT_ID":49307,"ELEMENT_SET_NO":999,"REV_AT_EPOCH":20435,"BSTAR":7.7241064e-5,"MEAN_MOTION_DOT":4.4e-7,"MEAN_MOTION_DDOT":0},{"OBJECT_NAME":"ONEWEB-0382","OBJECT_ID":"2021-090AF","EPOCH":"2025-12-06T08:16:17.882688","MEAN_MOTION":13.20773985,"ECCENTRICITY":0.00018441,"INCLINATION":87.92,"RA_OF_ASC_NODE":312.8925,"ARG_OF_PERICENTER":94.2679,"MEAN_ANOMALY":265.8665,"EPHEMERIS_TYPE":0,"CLASSIFICATION_TYPE":"U","NORAD_CAT_ID":49308,"ELEMENT_SET_NO":999,"REV_AT_EPOCH":20436,"BSTAR":0.00028009126,"MEAN_MOTION_DOT":1.27e-6,"MEAN_MOTION_DDOT":0},{"OBJECT_NAME":"ONEWEB-0383","OBJECT_ID":"2021-090AG","EPOCH":"2025-12-06T09:03:27.302112","MEAN_MOTION":13.14503225,"ECCENTRICITY":0.00018983,"INCLINATION":87.8989,"RA_OF_ASC_NODE":328.1038,"ARG_OF_PERICENTER":91.7116,"MEAN_ANOMALY":268.4231,"EPHEMERIS_TYPE":0,"CLASSIFICATION_TYPE":"U","NORAD_CAT_ID":49309,"ELEMENT_SET_NO":999,"REV_AT_EPOCH":20226,"BSTAR":-0.00037062415,"MEAN_MOTION_DOT":-1.25e-6,"MEAN_MOTION_DDOT":0},{"OBJECT_NAME":"ONEWEB-0384","OBJECT_ID":"2021-090AH","EPOCH":"2025-12-06T04:28:50.562912","MEAN_MOTION":13.20798206,"ECCENTRICITY":0.00020147,"INCLINATION":87.9208,"RA_OF_ASC_NODE":312.9593,"ARG_OF_PERICENTER":99.5841,"MEAN_ANOMALY":260.552,"EPHEMERIS_TYPE":0,"CLASSIFICATION_TYPE":"U","NORAD_CAT_ID":49310,"ELEMENT_SET_NO":999,"REV_AT_EPOCH":20435,"BSTAR":2.255609e-5,"MEAN_MOTION_DOT":2.2e-7,"MEAN_MOTION_DDOT":0},{"OBJECT_NAME":"ONEWEB-0385","OBJECT_ID":"2021-090AJ","EPOCH":"2025-12-06T15:21:17.426592","MEAN_MOTION":13.20769435,"ECCENTRICITY":0.00018319,"INCLINATION":87.9187,"RA_OF_ASC_NODE":312.839,"ARG_OF_PERICENTER":89.3602,"MEAN_ANOMALY":270.7741,"EPHEMERIS_TYPE":0,"CLASSIFICATION_TYPE":"U","NORAD_CAT_ID":49311,"ELEMENT_SET_NO":999,"REV_AT_EPOCH":20438,"BSTAR":0.00022622716,"MEAN_MOTION_DOT":1.05e-6,"MEAN_MOTION_DDOT":0},{"OBJECT_NAME":"ONEWEB-0386","OBJECT_ID":"2021-090AK","EPOCH":"2025-12-06T08:29:56.334336","MEAN_MOTION":13.20769721,"ECCENTRICITY":0.00019202,"INCLINATION":87.92,"RA_OF_ASC_NODE":312.8792,"ARG_OF_PERICENTER":90.9155,"MEAN_ANOMALY":269.2198,"EPHEMERIS_TYPE":0,"CLASSIFICATION_TYPE":"U","NORAD_CAT_ID":49312,"ELEMENT_SET_NO":999,"REV_AT_EPOCH":20436,"BSTAR":0.00029957523,"MEAN_MOTION_DOT":1.35e-6,"MEAN_MOTION_DDOT":0},{"OBJECT_NAME":"ONEWEB-0387","OBJECT_ID":"2021-090AL","EPOCH":"2025-12-06T08:07:13.935936","MEAN_MOTION":13.20778977,"ECCENTRICITY":0.00015779,"INCLINATION":87.9189,"RA_OF_ASC_NODE":312.9287,"ARG_OF_PERICENTER":90.0231,"MEAN_ANOMALY":270.1083,"EPHEMERIS_TYPE":0,"CLASSIFICATION_TYPE":"U","NORAD_CAT_ID":49313,"ELEMENT_SET_NO":999,"REV_AT_EPOCH":20436,"BSTAR":-0.0025671871,"MEAN_MOTION_DOT":-1.031e-5,"MEAN_MOTION_DDOT":0},{"OBJECT_NAME":"ONEWEB-0388","OBJECT_ID":"2021-090AM","EPOCH":"2025-12-06T10:53:53.614464","MEAN_MOTION":13.19724034,"ECCENTRICITY":0.00018067,"INCLINATION":87.9188,"RA_OF_ASC_NODE":343.326,"ARG_OF_PERICENTER":94.6207,"MEAN_ANOMALY":265.5132,"EPHEMERIS_TYPE":0,"CLASSIFICATION_TYPE":"U","NORAD_CAT_ID":49314,"ELEMENT_SET_NO":999,"REV_AT_EPOCH":20099,"BSTAR":0.0001634148,"MEAN_MOTION_DOT":7.8e-7,"MEAN_MOTION_DDOT":0},{"OBJECT_NAME":"ONEWEB-0389","OBJECT_ID":"2021-132A","EPOCH":"2025-12-06T14:59:24.188928","MEAN_MOTION":13.17647632,"ECCENTRICITY":0.00016603,"INCLINATION":87.9123,"RA_OF_ASC_NODE":44.1618,"ARG_OF_PERICENTER":113.9335,"MEAN_ANOMALY":246.1971,"EPHEMERIS_TYPE":0,"CLASSIFICATION_TYPE":"U","NORAD_CAT_ID":50469,"ELEMENT_SET_NO":999,"REV_AT_EPOCH":19272,"BSTAR":0.0002517394,"MEAN_MOTION_DOT":1.11e-6,"MEAN_MOTION_DDOT":0},{"OBJECT_NAME":"ONEWEB-0390","OBJECT_ID":"2021-132B","EPOCH":"2025-12-06T15:01:50.461536","MEAN_MOTION":13.17648456,"ECCENTRICITY":0.0001513,"INCLINATION":87.9116,"RA_OF_ASC_NODE":44.164,"ARG_OF_PERICENTER":95.2465,"MEAN_ANOMALY":264.8839,"EPHEMERIS_TYPE":0,"CLASSIFICATION_TYPE":"U","NORAD_CAT_ID":50470,"ELEMENT_SET_NO":999,"REV_AT_EPOCH":19272,"BSTAR":0.00021513185,"MEAN_MOTION_DOT":9.6e-7,"MEAN_MOTION_DDOT":0},{"OBJECT_NAME":"ONEWEB-0391","OBJECT_ID":"2021-132C","EPOCH":"2025-12-06T15:04:15.909888","MEAN_MOTION":13.17648485,"ECCENTRICITY":0.00012576,"INCLINATION":87.9115,"RA_OF_ASC_NODE":44.1734,"ARG_OF_PERICENTER":129.9921,"MEAN_ANOMALY":230.1321,"EPHEMERIS_TYPE":0,"CLASSIFICATION_TYPE":"U","NORAD_CAT_ID":50471,"ELEMENT_SET_NO":999,"REV_AT_EPOCH":19272,"BSTAR":0.00012448539,"MEAN_MOTION_DOT":6.1e-7,"MEAN_MOTION_DDOT":0},{"OBJECT_NAME":"ONEWEB-0392","OBJECT_ID":"2021-132D","EPOCH":"2025-12-06T13:58:39.518112","MEAN_MOTION":13.17648881,"ECCENTRICITY":0.00015638,"INCLINATION":87.9127,"RA_OF_ASC_NODE":44.134,"ARG_OF_PERICENTER":114.0207,"MEAN_ANOMALY":246.1089,"EPHEMERIS_TYPE":0,"CLASSIFICATION_TYPE":"U","NORAD_CAT_ID":50472,"ELEMENT_SET_NO":999,"REV_AT_EPOCH":19275,"BSTAR":0.00018206306,"MEAN_MOTION_DOT":8.4e-7,"MEAN_MOTION_DDOT":0},{"OBJECT_NAME":"ONEWEB-0393","OBJECT_ID":"2021-132E","EPOCH":"2025-12-06T15:09:19.038240","MEAN_MOTION":13.17647345,"ECCENTRICITY":0.00016228,"INCLINATION":87.9125,"RA_OF_ASC_NODE":44.1464,"ARG_OF_PERICENTER":107.4922,"MEAN_ANOMALY":252.6387,"EPHEMERIS_TYPE":0,"CLASSIFICATION_TYPE":"U","NORAD_CAT_ID":50473,"ELEMENT_SET_NO":999,"REV_AT_EPOCH":19275,"BSTAR":-4.8801945e-5,"MEAN_MOTION_DOT":-6.0e-8,"MEAN_MOTION_DDOT":0},{"OBJECT_NAME":"ONEWEB-0394","OBJECT_ID":"2021-132F","EPOCH":"2025-12-06T14:22:47.587296","MEAN_MOTION":13.18685674,"ECCENTRICITY":0.00017624,"INCLINATION":87.9187,"RA_OF_ASC_NODE":13.6891,"ARG_OF_PERICENTER":100.6614,"MEAN_ANOMALY":259.4717,"EPHEMERIS_TYPE":0,"CLASSIFICATION_TYPE":"U","NORAD_CAT_ID":50474,"ELEMENT_SET_NO":999,"REV_AT_EPOCH":19621,"BSTAR":0.00028370517,"MEAN_MOTION_DOT":1.25e-6,"MEAN_MOTION_DDOT":0},{"OBJECT_NAME":"ONEWEB-0395","OBJECT_ID":"2021-132G","EPOCH":"2025-12-06T14:15:20.786976","MEAN_MOTION":13.11419591,"ECCENTRICITY":0.00013971,"INCLINATION":87.8859,"RA_OF_ASC_NODE":59.4288,"ARG_OF_PERICENTER":103.0165,"MEAN_ANOMALY":257.1119,"EPHEMERIS_TYPE":0,"CLASSIFICATION_TYPE":"U","NORAD_CAT_ID":50475,"ELEMENT_SET_NO":999,"REV_AT_EPOCH":19047,"BSTAR":0.0018139444,"MEAN_MOTION_DOT":6.56e-6,"MEAN_MOTION_DDOT":0}]
